[{"OBJECT_NAME":"TIANMU-1 10","OBJECT_ID":"2023-101D","EPOCH":"2026-03-09T23:06:46.939392","MEAN_MOTION":15.2921896,"ECCENTRICITY":0.00069292,"INCLINATION":97.2749,"RA_OF_ASC_NODE":122.1027,"ARG_OF_PERICENTER":133.6162,"MEAN_ANOMALY":226.5654,"EPHEMERIS_TYPE":0,"CLASSIFICATION_TYPE":"U","NORAD_CAT_ID":57402,"ELEMENT_SET_NO":999,"REV_AT_EPOCH":14647,"BSTAR":0.00032238884,"MEAN_MOTION_DOT":9.075e-5,"MEAN_MOTION_DDOT":0},{"OBJECT_NAME":"STARLINK-30511","OBJECT_ID":"2023-151Q","EPOCH":"2026-03-09T22:00:01.999584","MEAN_MOTION":15.26755123,"ECCENTRICITY":0.00014061,"INCLINATION":42.9997,"RA_OF_ASC_NODE":349.2941,"ARG_OF_PERICENTER":258.9465,"MEAN_ANOMALY":307.5616,"EPHEMERIS_TYPE":0,"CLASSIFICATION_TYPE":"U","NORAD_CAT_ID":57978,"ELEMENT_SET_NO":999,"REV_AT_EPOCH":577,"BSTAR":-0.00023891008,"MEAN_MOTION_DOT":-6.665e-5,"MEAN_MOTION_DDOT":0}]
